NORAD_CAT_ID,OBJECT_NAME,OBJECT_TYPE,EPOCH,MEAN_MOTION,ECCENTRICITY,INCLINATION,RA_OF_ASC_NODE,ARG_OF_PERICENTER,MEAN_ANOMALY,BSTAR,MEAN_MOTION_DOT,MEAN_MOTION_DDOT,TLE_LINE0,TLE_LINE1,TLE_LINE2,SEMIMAJOR_AXIS,PERIOD,APOGEE,PERIGEE,DECAYED
53564.0,STARLINK-4577,PAYLOAD,2023-09-27 20:12:45,15.08843526,0.0001514,53.216,106.8211,83.6197,276.4968,0.00043953,6.715e-05,0.0,0 STARLINK-4577,1 53564U 22101AP  23270.84219042  .00006715  00000-0  43953-3 0  9999,2 53564  53.2160 106.8211 0001514  83.6197 276.4968 15.08843526 61502,6917.87,95.437,540.782,538.687,0.0
53564.0,STARLINK-4577,PAYLOAD,2023-09-28 21:38:55,15.08848223,0.0001489,53.2157,102.0625,93.5463,266.57,0.00024968,3.689e-05,0.0,0 STARLINK-4577,1 53564U 22101AP  23271.90202705  .00003689  00000-0  24968-3 0  9997,2 53564  53.2157 102.0625 0001489  93.5463 266.5700 15.08848223 61662,6917.855,95.437,540.75,538.69,0.0
53564.0,STARLINK-4577,PAYLOAD,2023-09-29 18:18:56,15.08836551,0.0001505,53.2155,98.1966,98.9822,261.134,0.00049405,7.583e-05,0.0,0 STARLINK-4577,1 53564U 22101AP  23272.76315205  .00007583  00000-0  49405-3 0  9992,2 53564  53.2155  98.1966 0001505  98.9822 261.1340 15.08836551 61796,6917.891,95.438,540.797,538.715,0.0
53564.0,STARLINK-4577,PAYLOAD,2023-09-29 19:54:19,15.0883835,0.0001494,53.2156,97.8991,93.5266,266.5897,0.000422,6.434e-05,0.0,0 STARLINK-4577,1 53564U 22101AP  23272.82939124  .00006434  00000-0  42200-3 0  9991,2 53564  53.2156  97.8991 0001494  93.5266 266.5897 15.08838350 61808,6917.885,95.438,540.784,538.717,0.0
53564.0,STARLINK-4577,PAYLOAD,2023-09-30 19:45:06,15.08846953,0.0001437,53.2162,93.4406,74.2222,285.8929,0.00012273,1.666e-05,0.0,0 STARLINK-4577,1 53564U 22101AP  23273.82298711  .00001666  00000-0  12273-3 0  9991,2 53564  53.2162  93.4406 0001437  74.2222 285.8929 15.08846953 61957,6917.859,95.437,540.718,538.73,0.0
53564.0,STARLINK-4577,PAYLOAD,2023-10-01 11:38:57,15.08838331,0.0001389,53.2153,90.4684,77.9386,282.1762,0.00018246,2.617e-05,0.0,0 STARLINK-4577,1 53564U 22101AP  23274.48539161  .00002617  00000-0  18246-3 0  9994,2 53564  53.2153  90.4684 0001389  77.9386 282.1762 15.08838331 62057,6917.885,95.438,540.711,538.79,0.0
53564.0,STARLINK-4577,PAYLOAD,2023-10-01 18:00:30,15.08841723,0.0001357,53.2156,89.2772,81.7208,278.3938,6.9101e-05,8.12e-06,0.0,0 STARLINK-4577,1 53564U 22101AP  23274.75035017  .00000812  00000-0  69101-4 0  9997,2 53564  53.2156  89.2772 0001357  81.7208 278.3938 15.08841723 62090,6917.875,95.437,540.679,538.801,0.0
53564.0,STARLINK-4577,PAYLOAD,2023-10-02 17:51:17,15.08844195,0.0001353,53.2169,84.8159,86.9375,273.1772,3.741e-05,3.08e-06,0.0,0 STARLINK-4577,1 53564U 22101AP  23275.74394994  .00000308  00000-0  37410-4 0  9997,2 53564  53.2169  84.8159 0001353  86.9375 273.1772 15.08844195 62244,6917.868,95.437,540.669,538.797,0.0
53564.0,STARLINK-4577,PAYLOAD,2023-10-03 14:31:18,15.08833207,0.0001277,53.2181,80.948,96.9939,263.1199,0.0001322,1.816e-05,0.0,0 STARLINK-4577,1 53564U 22101AP  23276.60507449  .00001816  00000-0  13220-3 0  9991,2 53564  53.2181  80.9480 0001277  96.9939 263.1199 15.08833207 62372,6917.901,95.438,540.65,538.883,0.0
53564.0,STARLINK-4577,PAYLOAD,2023-10-03 20:52:50,15.08844185,0.0001378,53.2166,79.7608,90.1936,269.9214,8.3202e-05,1.037e-05,0.0,0 STARLINK-4577,1 53564U 22101AP  23276.87002871  .00001037  00000-0  83202-4 0  9992,2 53564  53.2166  79.7608 0001378  90.1936 269.9214 15.08844185 62412,6917.868,95.437,540.686,538.779,0.0
53564.0,STARLINK-4577,PAYLOAD,2023-10-04 14:22:05,15.08844082,0.0001409,53.2167,76.4888,91.79,268.3254,0.00011698,1.574e-05,0.0,0 STARLINK-4577,1 53564U 22101AP  23277.59866899  .00001574  00000-0  11698-3 0  9995,2 53564  53.2167  76.4888 0001409  91.7900 268.3254 15.08844082 62525,6917.868,95.437,540.708,538.758,0.0
53564.0,STARLINK-4577,PAYLOAD,2023-10-04 17:32:50,15.08848884,0.000138,53.2176,75.8938,82.847,277.2679,0.00015208,2.134e-05,0.0,0 STARLINK-4577,1 53564U 22101AP  23277.73114534  .00002134  00000-0  15208-3 0  9997,2 53564  53.2176  75.8938 0001380  82.8470 277.2679 15.08848884 62541,6917.853,95.437,540.673,538.764,0.0
53564.0,STARLINK-4577,PAYLOAD,2023-10-05 11:02:06,15.08833393,0.0001405,53.2157,72.6253,80.7791,279.336,5.3593e-06,-2.03e-06,0.0,0 STARLINK-4577,1 53564U 22101AP  23278.45979583 -.00000203  00000-0  53593-5 0  9997,2 53564  53.2157  72.6253 0001405  80.7791 279.3360 15.08833393 62657,6917.901,95.438,540.738,538.794,0.0
53564.0,STARLINK-4577,PAYLOAD,2023-10-05 14:12:52,15.08837167,0.0001611,53.2179,72.0298,91.8105,268.3071,8.1713e-05,1.013e-05,0.0,0 STARLINK-4577,1 53564U 22101AP  23278.59227537  .00001013  00000-0  81713-4 0  9990,2 53564  53.2179  72.0298 0001611  91.8105 268.3071 15.08837167 62677,6917.889,95.438,540.869,538.64,0.0
53564.0,STARLINK-4577,PAYLOAD,2023-10-05 15:48:15,15.08836573,0.0001542,53.2174,71.7333,81.1449,278.9718,6.4383e-05,7.37e-06,0.0,0 STARLINK-4577,1 53564U 22101AP  23278.65851639  .00000737  00000-0  64383-4 0  9999,2 53564  53.2174  71.7333 0001542  81.1449 278.9718 15.08836573 62680,6917.891,95.438,540.823,538.689,0.0
53564.0,STARLINK-4577,PAYLOAD,2023-10-06 14:03:39,15.08838164,0.000133,53.2175,67.5686,89.5499,270.5645,-9.3559e-06,-4.37e-06,0.0,0 STARLINK-4577,1 53564U 22101AP  23279.58587908 -.00000437  00000-0 -93559-5 0  9994,2 53564  53.2175  67.5686 0001330  89.5499 270.5645 15.08838164 62828,6917.886,95.438,540.671,538.831,0.0
53564.0,STARLINK-4577,PAYLOAD,2023-10-06 17:14:25,15.08842971,0.0001305,53.2175,66.9748,82.7704,277.3437,4.0318e-05,3.54e-06,0.0,0 STARLINK-4577,1 53564U 22101AP  23279.71835494  .00000354  00000-0  40318-4 0  9995,2 53564  53.2175  66.9748 0001305  82.7704 277.3437 15.08842971 62843,6917.871,95.437,540.639,538.834,0.0
53564.0,STARLINK-4577,PAYLOAD,2023-10-07 09:08:17,15.08834266,0.0001168,53.2173,64.0017,92.7544,267.3582,0.00012871,1.761e-05,0.0,0 STARLINK-4577,1 53564U 22101AP  23280.38075921  .00001761  00000-0  12871-3 0  9996,2 53564  53.2173  64.0017 0001168  92.7544 267.3582 15.08834266 62948,6917.898,95.438,540.571,538.955,0.0
53564.0,STARLINK-4577,PAYLOAD,2023-10-07 13:54:26,15.08837907,0.0001331,53.2179,63.1098,93.4606,266.6538,0.00010817,1.434e-05,0.0,0 STARLINK-4577,1 53564U 22101AP  23280.57947887  .00001434  00000-0  10817-3 0  9991,2 53564  53.2179  63.1098 0001331  93.4606 266.6538 15.08837907 62973,6917.887,95.438,540.673,538.831,0.0
53564.0,STARLINK-4577,PAYLOAD,2023-10-07 17:05:12,15.0884567,0.0001248,53.218,62.5144,84.4235,275.6899,0.0001386,1.919e-05,0.0,0 STARLINK-4577,1 53564U 22101AP  23280.71195413  .00001919  00000-0  13860-3 0  9996,2 53564  53.2180  62.5144 0001248  84.4235 275.6899 15.08845670 62993,6917.863,95.437,540.591,538.865,0.0
53564.0,STARLINK-4577,PAYLOAD,2023-10-08 02:37:32,15.08838228,0.0001129,53.2181,60.7298,96.4225,263.6896,0.00013883,1.922e-05,0.0,0 STARLINK-4577,1 53564U 22101AP  23281.10939874  .00001922  00000-0  13883-3 0  9996,2 53564  53.2181  60.7298 0001129  96.4225 263.6896 15.08838228 63057,6917.886,95.438,540.532,538.97,0.0
53564.0,STARLINK-4577,PAYLOAD,2023-10-08 13:45:14,15.08838056,0.0001293,53.218,58.6498,92.2449,267.8692,7.5425e-05,9.13e-06,0.0,0 STARLINK-4577,1 53564U 22101AP  23281.57308275  .00000913  00000-0  75425-4 0  9992,2 53564  53.2180  58.6498 0001293  92.2449 267.8692 15.08838056 63125,6917.886,95.438,540.646,538.857,0.0
53564.0,STARLINK-4577,PAYLOAD,2023-10-08 16:55:59,15.0884926,0.0001317,53.2183,58.0545,89.9397,270.1746,0.00016063,2.27e-05,0.0,0 STARLINK-4577,1 53564U 22101AP  23281.70555396  .00002270  00000-0  16063-3 0  9995,2 53564  53.2183  58.0545 0001317  89.9397 270.1746 15.08849260 63145,6917.852,95.437,540.628,538.806,0.0
53564.0,STARLINK-4577,PAYLOAD,2023-10-09 02:28:19,15.08843488,0.0001503,53.2199,56.2719,89.7063,270.4101,0.00010735,1.421e-05,0.0,0 STARLINK-4577,1 53564U 22101AP  23282.10299916  .00001421  00000-0  10735-3 0  9990,2 53564  53.2199  56.2719 0001503  89.7063 270.4101 15.08843488 63201,6917.87,95.437,540.774,538.695,0.0
53564.0,STARLINK-4577,PAYLOAD,2023-10-09 13:36:01,15.08839138,0.0001561,53.2199,54.1919,76.4403,283.6763,7.8696e-05,9.65e-06,0.0,0 STARLINK-4577,1 53564U 22101AP  23282.56668358  .00000965  00000-0  78696-4 0  9993,2 53564  53.2199  54.1919 0001561  76.4403 283.6763 15.08839138 63279,6917.883,95.438,540.828,538.668,0.0
53564.0,STARLINK-4577,PAYLOAD,2023-10-09 18:22:09,15.08856168,0.0001484,53.2202,53.2947,100.9901,259.1258,0.00010394,1.367e-05,0.0,0 STARLINK-4577,1 53564U 22101AP  23282.76538967  .00001367  00000-0  10394-3 0  9994,2 53564  53.2202  53.2947 0001484 100.9901 259.1258 15.08856168 63308,6917.831,95.437,540.723,538.669,0.0
53564.0,STARLINK-4577,PAYLOAD,2023-10-10 13:26:48,15.08836647,0.0001374,53.2211,49.7262,99.9977,260.117,0.00024858,3.67e-05,0.0,0 STARLINK-4577,1 53564U 22101AP  23283.56027842  .00003670  00000-0  24858-3 0  9997,2 53564  53.2211  49.7262 0001374  99.9977 260.1170 15.08836647 63424,6917.891,95.438,540.706,538.805,0.0
53564.0,STARLINK-4577,PAYLOAD,2023-10-10 18:12:56,15.08853511,0.0001671,53.2199,48.8334,106.6657,253.4519,0.00018046,2.586e-05,0.0,0 STARLINK-4577,1 53564U 22101AP  23283.75898871  .00002586  00000-0  18046-3 0  9993,2 53564  53.2199  48.8334 0001671 106.6657 253.4519 15.08853511 63454,6917.839,95.437,540.86,538.548,0.0
53564.0,STARLINK-4577,PAYLOAD,2023-10-11 08:31:26,15.08825692,0.0001551,53.2172,46.1591,94.5304,265.5865,-0.00011838,-2.171e-05,0.0,0 STARLINK-4577,1 53564U 22101AP  23284.35517051 -.00002171  00000-0 -11838-3 0  9992,2 53564  53.2172  46.1591 0001551  94.5304 265.5865 15.08825692 63549,6917.924,95.438,540.862,538.716,0.0
53564.0,STARLINK-4577,PAYLOAD,2023-10-11 13:17:35,15.08832437,0.0001644,53.218,45.2715,76.9986,283.1189,-3.0794e-05,-7.78e-06,0.0,0 STARLINK-4577,1 53564U 22101AP  23284.55388411 -.00000778  00000-0 -30794-4 0  9994,2 53564  53.2180  45.2715 0001644  76.9986 283.1189 15.08832437 63572,6917.904,95.438,540.906,538.631,0.0
